{
  "status": "success",
  "hasErrors": false,
  "message": "",
  "length": 155,
  "payload": [
    {
      "_index": "tle",
      "_type": "_doc",
      "_id": "EfIXtnYBwxzt-ZlwRttC",
      "_score": 9.328143,
      "_source": {
        "right_ascension": "171.2437",
        "anomaly": "332.8967",
        "calc_anomaly": 332.8967,
        "satellite_number": 10976,
        "calc_mean_motion": 2.22263812,
        "ephemeris": "0",
        "set_number": "0935",
        "calc_ballistic_coefficient": -6.7e-7,
        "epoch": "11365.27874898",
        "international_designator": "78068B",
        "calc_inclination": 21.13,
        "perigee": "114.5630",
        "revolution_number": "27187",
        "line_number": 6719,
        "calc_perigee": 114.563,
        "drag": "+00000-0",
        "text": "1 10976U 78068B   11365.27874898 -.00000067  00000-0  00000-0 0  9355\n2 10976  21.1300 171.2437 7193663 114.5630 332.8967  2.22263812271873",
        "calc_drag": 0,
        "timestamp": "2011-12-31 06:41:23",
        "inclination": "021.1300",
        "eccentricity": "7193663",
        "classification": "U",
        "calc_right_ascension": 171.2437,
        "calc_mean_motion_2": 0,
        "ballistic_coefficient": "-.00000067",
        "filename": "tle2012.txt",
        "calc_eccentricity": 0.7193663,
        "mean_motion": "02.22263812",
        "mean_motion_2": "+00000-0"
      }
    },
    {
      "_index": "tle",
      "_type": "_doc",
      "_id": "y_QrtnYBwxzt-ZlwPYDp",
      "_score": 9.328143,
      "_source": {
        "right_ascension": "042.0502",
        "anomaly": "008.6925",
        "calc_anomaly": 8.6925,
        "satellite_number": 10976,
        "calc_mean_motion": 2.22265973,
        "ephemeris": "0",
        "set_number": "130",
        "calc_ballistic_coefficient": 0.00000134,
        "epoch": "13007.30498905",
        "international_designator": "78068B",
        "calc_inclination": 21.7939,
        "perigee": "343.9713",
        "revolution_number": "28017",
        "line_number": 110247,
        "calc_perigee": 343.9713,
        "drag": "18050-2",
        "text": "1 10976U 78068B   13007.30498905  .00000134  00000-0  18050-2 0  1302\n2 10976  21.7939  42.0502 7173797 343.9713   8.6925  2.22265973280176",
        "calc_drag": 0.001805,
        "timestamp": "2013-01-07 07:19:11",
        "inclination": "021.7939",
        "eccentricity": "7173797",
        "classification": "U",
        "calc_right_ascension": 42.0502,
        "calc_mean_motion_2": 0,
        "ballistic_coefficient": ".00000134",
        "filename": "tle2013.txt",
        "calc_eccentricity": 0.7173797,
        "mean_motion": "02.22265973",
        "mean_motion_2": "00000-0"
      }
    },
    {
      "_index": "tle",
      "_type": "_doc",
      "_id": "gmUztnYBAz3ao6c9Woj8",
      "_score": 9.328143,
      "_source": {
        "right_ascension": "152.5707",
        "anomaly": "358.8195",
        "calc_anomaly": 358.8195,
        "satellite_number": 10976,
        "calc_mean_motion": 2.22298588,
        "ephemeris": "0",
        "set_number": "552",
        "calc_ballistic_coefficient": 4.2e-7,
        "epoch": "15002.49909814",
        "international_designator": "78068B",
        "calc_inclination": 21.1758,
        "perigee": "067.7952",
        "revolution_number": "29630",
        "line_number": 38497,
        "calc_perigee": 67.7952,
        "drag": "84926-4",
        "text": "1 10976U 78068B   15002.49909814  .00000042  00000-0  84926-4 0  5528\n2 10976  21.1758 152.5707 7177522  67.7952 358.8195  2.22298588296308",
        "calc_drag": 0.000084926,
        "timestamp": "2015-01-02 11:58:42",
        "inclination": "021.1758",
        "eccentricity": "7177522",
        "classification": "U",
        "calc_right_ascension": 152.5707,
        "calc_mean_motion_2": 0,
        "ballistic_coefficient": ".00000042",
        "filename": "tle2015.txt",
        "calc_eccentricity": 0.7177522,
        "mean_motion": "02.22298588",
        "mean_motion_2": "00000-0"
      }
    },
    {
      "_index": "tle",
      "_type": "_doc",
      "_id": "ffU1tnYBwxzt-ZlwcCfi",
      "_score": 9.328143,
      "_source": {
        "right_ascension": "150.0262",
        "anomaly": "006.0995",
        "calc_anomaly": 6.0995,
        "satellite_number": 10976,
        "calc_mean_motion": 2.22298801,
        "ephemeris": "0",
        "set_number": "557",
        "calc_ballistic_coefficient": -5.8e-7,
        "epoch": "15009.70572275",
        "international_designator": "78068B",
        "calc_inclination": 21.1631,
        "perigee": "072.2780",
        "revolution_number": "29646",
        "line_number": 179379,
        "calc_perigee": 72.278,
        "drag": "-64341-3",
        "text": "1 10976U 78068B   15009.70572275 -.00000058  00000-0 -64341-3 0  5578\n2 10976  21.1631 150.0262 7178645  72.2780   6.0995  2.22298801296469",
        "calc_drag": -0.00064341,
        "timestamp": "2015-01-09 16:56:14",
        "inclination": "021.1631",
        "eccentricity": "7178645",
        "classification": "U",
        "calc_right_ascension": 150.0262,
        "calc_mean_motion_2": 0,
        "ballistic_coefficient": "-.00000058",
        "filename": "tle2015.txt",
        "calc_eccentricity": 0.7178645,
        "mean_motion": "02.22298801",
        "mean_motion_2": "00000-0"
      }
    },
    {
      "_index": "tle",
      "_type": "_doc",
      "_id": "wWU2tnYBAz3ao6c9OMna",
      "_score": 9.328143,
      "_source": {
        "right_ascension": "150.4280",
        "anomaly": "178.6804",
        "calc_anomaly": 178.6804,
        "satellite_number": 10976,
        "calc_mean_motion": 2.22298959,
        "ephemeris": "0",
        "set_number": "556",
        "calc_ballistic_coefficient": -7.1e-7,
        "epoch": "15008.57183976",
        "international_designator": "78068B",
        "calc_inclination": 21.1651,
        "perigee": "071.5711",
        "revolution_number": "29643",
        "line_number": 160629,
        "calc_perigee": 71.5711,
        "drag": "-72718-3",
        "text": "1 10976U 78068B   15008.57183976 -.00000071  00000-0 -72718-3 0  5569\n2 10976  21.1651 150.4280 7178462  71.5711 178.6804  2.22298959296434",
        "calc_drag": -0.00072718,
        "timestamp": "2015-01-08 13:43:26",
        "inclination": "021.1651",
        "eccentricity": "7178462",
        "classification": "U",
        "calc_right_ascension": 150.428,
        "calc_mean_motion_2": 0,
        "ballistic_coefficient": "-.00000071",
        "filename": "tle2015.txt",
        "calc_eccentricity": 0.7178462,
        "mean_motion": "02.22298959",
        "mean_motion_2": "00000-0"
      }
    },
    {
      "_index": "tle",
      "_type": "_doc",
      "_id": "i_ZKtnYBwxzt-Zlworr_",
      "_score": 9.328143,
      "_source": {
        "right_ascension": "279.4133",
        "anomaly": "350.7892",
        "calc_anomaly": 350.7892,
        "satellite_number": 10976,
        "calc_mean_motion": 2.22278046,
        "ephemeris": "0",
        "set_number": "330",
        "calc_ballistic_coefficient": -3.3e-7,
        "epoch": "14003.09343409",
        "international_designator": "78068B",
        "calc_inclination": 21.6511,
        "perigee": "202.7296",
        "revolution_number": "28819",
        "line_number": 52389,
        "calc_perigee": 202.7296,
        "drag": "12073-2",
        "text": "1 10976U 78068B   14003.09343409 -.00000033  00000-0  12073-2 0  3303\n2 10976  21.6511 279.4133 7186396 202.7296 350.7892  2.22278046288193",
        "calc_drag": 0.0012073,
        "timestamp": "2014-01-03 02:14:32",
        "inclination": "021.6511",
        "eccentricity": "7186396",
        "classification": "U",
        "calc_right_ascension": 279.4133,
        "calc_mean_motion_2": 0,
        "ballistic_coefficient": "-.00000033",
        "filename": "tle2014.txt",
        "calc_eccentricity": 0.7186396,
        "mean_motion": "02.22278046",
        "mean_motion_2": "00000-0"
      }
    },
    {
      "_index": "tle",
      "_type": "_doc",
      "_id": "fvZNtnYBwxzt-ZlwWNms",
      "_score": 9.328143,
      "_source": {
        "right_ascension": "26.4503",
        "anomaly": "129.5250",
        "calc_anomaly": 129.525,
        "satellite_number": 10976,
        "calc_mean_motion": 2.22309667,
        "ephemeris": "0",
        "set_number": "776",
        "calc_ballistic_coefficient": -9e-8,
        "epoch": "16001.13966227",
        "international_designator": "78068B",
        "calc_inclination": 21.8961,
        "perigee": "291.4797",
        "revolution_number": "30439",
        "line_number": 8369,
        "calc_perigee": 291.4797,
        "drag": "22421-2",
        "text": "1 10976U 78068B   16001.13966227 -.00000009  00000-0  22421-2 0  7762\n2 10976  21.8961  26.4503 7180009 291.4797 129.5250  2.22309667304396",
        "calc_drag": 0.0022421,
        "timestamp": "2016-01-01 03:21:06",
        "inclination": "21.8961",
        "eccentricity": "7180009",
        "classification": "U",
        "calc_right_ascension": 26.4503,
        "calc_mean_motion_2": 0,
        "ballistic_coefficient": "-.00000009",
        "filename": "tle2016.txt",
        "calc_eccentricity": 0.7180009,
        "mean_motion": "2.22309667",
        "mean_motion_2": "00000-0"
      }
    }
  ]
}